[{"OBJECT_NAME":"ONEWEB-0371","OBJECT_ID":"2021-090U","EPOCH":"2026-06-19T02:02:48.656832","MEAN_MOTION":13.19724253,"ECCENTRICITY":0.0001901,"INCLINATION":87.9175,"RA_OF_ASC_NODE":304.5883,"ARG_OF_PERICENTER":102.5491,"MEAN_ANOMALY":257.5855,"EPHEMERIS_TYPE":0,"CLASSIFICATION_TYPE":"U","NORAD_CAT_ID":49297,"ELEMENT_SET_NO":999,"REV_AT_EPOCH":22670,"BSTAR":9.025100000000001e-05,"MEAN_MOTION_DOT":4.9e-07,"MEAN_MOTION_DDOT":0.0},{"OBJECT_NAME":"ONEWEB-0372","OBJECT_ID":"2021-090V","EPOCH":"2026-06-19T04:59:09.088512","MEAN_MOTION":13.20680623,"ECCENTRICITY":0.0001856,"INCLINATION":87.9192,"RA_OF_ASC_NODE":274.0388,"ARG_OF_PERICENTER":102.6128,"MEAN_ANOMALY":257.5213,"EPHEMERIS_TYPE":0,"CLASSIFICATION_TYPE":"U","NORAD_CAT_ID":49298,"ELEMENT_SET_NO":999,"REV_AT_EPOCH":23010,"BSTAR":-0.024614,"MEAN_MOTION_DOT":-9.971e-05,"MEAN_MOTION_DDOT":0.0},{"OBJECT_NAME":"ONEWEB-0373","OBJECT_ID":"2021-090W","EPOCH":"2026-06-19T05:35:31.936128","MEAN_MOTION":13.20771682,"ECCENTRICITY":0.0002086,"INCLINATION":87.9193,"RA_OF_ASC_NODE":274.0345,"ARG_OF_PERICENTER":99.9735,"MEAN_ANOMALY":260.1634,"EPHEMERIS_TYPE":0,"CLASSIFICATION_TYPE":"U","NORAD_CAT_ID":49299,"ELEMENT_SET_NO":999,"REV_AT_EPOCH":23129,"BSTAR":0.00022338,"MEAN_MOTION_DOT":1.04e-06,"MEAN_MOTION_DDOT":0.0},{"OBJECT_NAME":"ONEWEB-0374","OBJECT_ID":"2021-090X","EPOCH":"2026-06-19T06:00:02.687040","MEAN_MOTION":13.14503514,"ECCENTRICITY":0.0002105,"INCLINATION":87.8971,"RA_OF_ASC_NODE":289.2862,"ARG_OF_PERICENTER":84.2803,"MEAN_ANOMALY":275.8567,"EPHEMERIS_TYPE":0,"CLASSIFICATION_TYPE":"U","NORAD_CAT_ID":49300,"ELEMENT_SET_NO":999,"REV_AT_EPOCH":22783,"BSTAR":0.00060947,"MEAN_MOTION_DOT":2.39e-06,"MEAN_MOTION_DDOT":0.0},{"OBJECT_NAME":"ONEWEB-0375","OBJECT_ID":"2021-090Y","EPOCH":"2026-06-19T05:18:34.119072","MEAN_MOTION":13.20771473,"ECCENTRICITY":0.0002242,"INCLINATION":87.9199,"RA_OF_ASC_NODE":274.0283,"ARG_OF_PERICENTER":86.7131,"MEAN_ANOMALY":273.4259,"EPHEMERIS_TYPE":0,"CLASSIFICATION_TYPE":"U","NORAD_CAT_ID":49301,"ELEMENT_SET_NO":999,"REV_AT_EPOCH":23079,"BSTAR":0.0002932,"MEAN_MOTION_DOT":1.32e-06,"MEAN_MOTION_DDOT":0.0},{"OBJECT_NAME":"ONEWEB-0376","OBJECT_ID":"2021-090Z","EPOCH":"2026-06-19T07:28:03.738432","MEAN_MOTION":13.19725248,"ECCENTRICITY":0.0001701,"INCLINATION":87.9176,"RA_OF_ASC_NODE":304.5432,"ARG_OF_PERICENTER":102.7708,"MEAN_ANOMALY":257.3615,"EPHEMERIS_TYPE":0,"CLASSIFICATION_TYPE":"U","NORAD_CAT_ID":49302,"ELEMENT_SET_NO":999,"REV_AT_EPOCH":22673,"BSTAR":0.00033638,"MEAN_MOTION_DOT":1.48e-06,"MEAN_MOTION_DDOT":0.0},{"OBJECT_NAME":"ONEWEB-0377","OBJECT_ID":"2021-090AA","EPOCH":"2026-06-19T06:48:27.783360","MEAN_MOTION":13.20780155,"ECCENTRICITY":0.0002349,"INCLINATION":87.9195,"RA_OF_ASC_NODE":274.0171,"ARG_OF_PERICENTER":93.9798,"MEAN_ANOMALY":266.1604,"EPHEMERIS_TYPE":0,"CLASSIFICATION_TYPE":"U","NORAD_CAT_ID":49303,"ELEMENT_SET_NO":999,"REV_AT_EPOCH":23079,"BSTAR":-0.0016475,"MEAN_MOTION_DOT":-6.57e-06,"MEAN_MOTION_DDOT":0.0},{"OBJECT_NAME":"ONEWEB-0378","OBJECT_ID":"2021-090AB","EPOCH":"2026-06-19T07:17:32.667648","MEAN_MOTION":13.20770913,"ECCENTRICITY":0.0001961,"INCLINATION":87.9192,"RA_OF_ASC_NODE":274.0187,"ARG_OF_PERICENTER":96.7192,"MEAN_ANOMALY":263.4164,"EPHEMERIS_TYPE":0,"CLASSIFICATION_TYPE":"U","NORAD_CAT_ID":49304,"ELEMENT_SET_NO":999,"REV_AT_EPOCH":23006,"BSTAR":0.00018744,"MEAN_MOTION_DOT":8.9e-07,"MEAN_MOTION_DDOT":0.0},{"OBJECT_NAME":"ONEWEB-0379","OBJECT_ID":"2021-090AC","EPOCH":"2026-06-19T02:13:58.287936","MEAN_MOTION":13.1450267,"ECCENTRICITY":0.0001903,"INCLINATION":87.8968,"RA_OF_ASC_NODE":289.3281,"ARG_OF_PERICENTER":97.0086,"MEAN_ANOMALY":263.126,"EPHEMERIS_TYPE":0,"CLASSIFICATION_TYPE":"U","NORAD_CAT_ID":49305,"ELEMENT_SET_NO":999,"REV_AT_EPOCH":22781,"BSTAR":0.00043099,"MEAN_MOTION_DOT":1.73e-06,"MEAN_MOTION_DDOT":0.0},{"OBJECT_NAME":"ONEWEB-0380","OBJECT_ID":"2021-090AD","EPOCH":"2026-06-19T01:55:59.945088","MEAN_MOTION":13.19724979,"ECCENTRICITY":0.0002077,"INCLINATION":87.9172,"RA_OF_ASC_NODE":304.5941,"ARG_OF_PERICENTER":96.9023,"MEAN_ANOMALY":263.2346,"EPHEMERIS_TYPE":0,"CLASSIFICATION_TYPE":"U","NORAD_CAT_ID":49306,"ELEMENT_SET_NO":999,"REV_AT_EPOCH":22667,"BSTAR":5.7737000000000006e-05,"MEAN_MOTION_DOT":3.6e-07,"MEAN_MOTION_DDOT":0.0},{"OBJECT_NAME":"ONEWEB-0381","OBJECT_ID":"2021-090AE","EPOCH":"2026-06-19T04:54:19.274400","MEAN_MOTION":13.20772003,"ECCENTRICITY":0.0002042,"INCLINATION":87.9199,"RA_OF_ASC_NODE":274.0384,"ARG_OF_PERICENTER":92.4568,"MEAN_ANOMALY":267.6799,"EPHEMERIS_TYPE":0,"CLASSIFICATION_TYPE":"U","NORAD_CAT_ID":49307,"ELEMENT_SET_NO":999,"REV_AT_EPOCH":23009,"BSTAR":1.7068e-05,"MEAN_MOTION_DOT":2e-07,"MEAN_MOTION_DDOT":0.0},{"OBJECT_NAME":"ONEWEB-0382","OBJECT_ID":"2021-090AF","EPOCH":"2026-06-19T06:24:00.360576","MEAN_MOTION":13.20770487,"ECCENTRICITY":0.0001974,"INCLINATION":87.9195,"RA_OF_ASC_NODE":274.0201,"ARG_OF_PERICENTER":92.0136,"MEAN_ANOMALY":268.1223,"EPHEMERIS_TYPE":0,"CLASSIFICATION_TYPE":"U","NORAD_CAT_ID":49308,"ELEMENT_SET_NO":999,"REV_AT_EPOCH":23009,"BSTAR":4.9574000000000003e-05,"MEAN_MOTION_DOT":3.3e-07,"MEAN_MOTION_DDOT":0.0},{"OBJECT_NAME":"ONEWEB-0383","OBJECT_ID":"2021-090AG","EPOCH":"2026-06-18T18:46:23.179008","MEAN_MOTION":13.14501647,"ECCENTRICITY":0.0001825,"INCLINATION":87.8972,"RA_OF_ASC_NODE":289.3814,"ARG_OF_PERICENTER":96.1584,"MEAN_ANOMALY":263.9753,"EPHEMERIS_TYPE":0,"CLASSIFICATION_TYPE":"U","NORAD_CAT_ID":49309,"ELEMENT_SET_NO":999,"REV_AT_EPOCH":22780,"BSTAR":0.0006166199999999999,"MEAN_MOTION_DOT":2.41e-06,"MEAN_MOTION_DDOT":0.0},{"OBJECT_NAME":"ONEWEB-0384","OBJECT_ID":"2021-090AH","EPOCH":"2026-06-19T06:07:33.600864","MEAN_MOTION":13.20812322,"ECCENTRICITY":0.0001899,"INCLINATION":87.92,"RA_OF_ASC_NODE":274.0661,"ARG_OF_PERICENTER":87.0586,"MEAN_ANOMALY":273.0765,"EPHEMERIS_TYPE":0,"CLASSIFICATION_TYPE":"U","NORAD_CAT_ID":49310,"ELEMENT_SET_NO":999,"REV_AT_EPOCH":23010,"BSTAR":0.00012138,"MEAN_MOTION_DOT":6.2e-07,"MEAN_MOTION_DDOT":0.0},{"OBJECT_NAME":"ONEWEB-0385","OBJECT_ID":"2021-090AJ","EPOCH":"2026-06-19T06:14:19.019904","MEAN_MOTION":13.20772622,"ECCENTRICITY":0.0001982,"INCLINATION":87.9197,"RA_OF_ASC_NODE":274.0268,"ARG_OF_PERICENTER":94.4561,"MEAN_ANOMALY":265.6799,"EPHEMERIS_TYPE":0,"CLASSIFICATION_TYPE":"U","NORAD_CAT_ID":49311,"ELEMENT_SET_NO":999,"REV_AT_EPOCH":23007,"BSTAR":-5.5457999999999997e-05,"MEAN_MOTION_DOT":-1e-07,"MEAN_MOTION_DDOT":0.0},{"OBJECT_NAME":"ONEWEB-0386","OBJECT_ID":"2021-090AK","EPOCH":"2026-06-19T04:49:28.514208","MEAN_MOTION":13.20771779,"ECCENTRICITY":0.0001906,"INCLINATION":87.92,"RA_OF_ASC_NODE":274.0295,"ARG_OF_PERICENTER":92.9792,"MEAN_ANOMALY":267.1559,"EPHEMERIS_TYPE":0,"CLASSIFICATION_TYPE":"U","NORAD_CAT_ID":49312,"ELEMENT_SET_NO":999,"REV_AT_EPOCH":23008,"BSTAR":-9.812e-05,"MEAN_MOTION_DOT":-2.7e-07,"MEAN_MOTION_DDOT":0.0}]