ONEWEB-0371             
1 49297U 21090U   26170.08528538  .00000049  00000+0  90251-4 0  9991
2 49297  87.9175 304.5883 0001901 102.5491 257.5855 13.19724253226705
ONEWEB-0372             
1 49298U 21090V   26170.20774408 -.00009971  00000+0 -24614-1 0  9997
2 49298  87.9192 274.0388 0001856 102.6128 257.5213 13.20680623230104
ONEWEB-0373             
1 49299U 21090W   26170.23300852  .00000104  00000+0  22338-3 0  9999
2 49299  87.9193 274.0345 0002086  99.9735 260.1634 13.20771682231291
ONEWEB-0374             
1 49300U 21090X   26170.25003110  .00000239  00000+0  60947-3 0  9998
2 49300  87.8971 289.2862 0002105  84.2803 275.8567 13.14503514227837
ONEWEB-0375             
1 49301U 21090Y   26170.22122823  .00000132  00000+0  29320-3 0  9991
2 49301  87.9199 274.0283 0002242  86.7131 273.4259 13.20771473230792
ONEWEB-0376             
1 49302U 21090Z   26170.31115438  .00000148  00000+0  33638-3 0  9990
2 49302  87.9176 304.5432 0001701 102.7708 257.3615 13.19725248226734
ONEWEB-0377             
1 49303U 21090AA  26170.28365490 -.00000657  00000+0 -16475-2 0  9998
2 49303  87.9195 274.0171 0002349  93.9798 266.1604 13.20780155230793
ONEWEB-0378             
1 49304U 21090AB  26170.30385032  .00000089  00000+0  18744-3 0  9995
2 49304  87.9192 274.0187 0001961  96.7192 263.4164 13.20770913230068
ONEWEB-0379             
1 49305U 21090AC  26170.09303574  .00000173  00000+0  43099-3 0  9998
2 49305  87.8968 289.3281 0001903  97.0086 263.1260 13.14502670227814
ONEWEB-0380             
1 49306U 21090AD  26170.08055492  .00000036  00000+0  57737-4 0  9994
2 49306  87.9172 304.5941 0002077  96.9023 263.2346 13.19724979226670
ONEWEB-0381             
1 49307U 21090AE  26170.20438975  .00000020  00000+0  17068-4 0  9996
2 49307  87.9199 274.0384 0002042  92.4568 267.6799 13.20772003230093
ONEWEB-0382             
1 49308U 21090AF  26170.26667084  .00000033  00000+0  49574-4 0  9999
2 49308  87.9195 274.0201 0001974  92.0136 268.1223 13.20770487230090
ONEWEB-0383             
1 49309U 21090AG  26169.78221272  .00000241  00000+0  61662-3 0  9992
2 49309  87.8972 289.3814 0001825  96.1584 263.9753 13.14501647227808
ONEWEB-0384             
1 49310U 21090AH  26170.25525001  .00000062  00000+0  12138-3 0  9990
2 49310  87.9200 274.0661 0001899  87.0586 273.0765 13.20812322230102
ONEWEB-0385             
1 49311U 21090AJ  26170.25994236 -.00000010  00000+0 -55458-4 0  9999
2 49311  87.9197 274.0268 0001982  94.4561 265.6799 13.20772622230077
ONEWEB-0386             
1 49312U 21090AK  26170.20102447 -.00000027  00000+0 -98120-4 0  9991
2 49312  87.9200 274.0295 0001906  92.9792 267.1559 13.20771779230082
